{"version": 0.6, "generator": "Overpass API 0.7.62.5 1bd436f1", "osm3s": {"timestamp_osm_base": "2025-05-24T18:09:42Z", "copyright": "The data included in this document is from www.openstreetmap.org. The data is made available under ODbL."}, "elements": [{"type": "node", "id": 1812186924, "lat": 5.7579503, "lon": 117.7583785, "tags": {"name": "Batu 32", "place": "suburb"}}, {"type": "node", "id": 2027524769, "lat": 5.9063528, "lon": 117.7734137, "tags": {"name": "Kampung Samawang", "name:en": "Samawang Village", "name:ms": "Kampung Samawang", "place": "village"}}, {"type": "node", "id": 3263043637, "lat": 5.8342116, "lon": 117.5770708, "tags": {"name": "Kg. Balaban", "place": "village"}}, {"type": "node", "id": 3263044477, "lat": 5.7681783, "lon": 117.7092373, "tags": {"name": "Kg. Jaya Bakti", "place": "village"}}, {"type": "node", "id": 4523630190, "lat": 5.8979788, "lon": 117.5598077, "tags": {"name": "Beluran", "name:ar": "\u0628\u0644\u0648\u0631\u0627\u0646", "name:en": "Beluran", "name:ms": "Beluran", "name:zh": "\u6bd4\u9c81\u5170", "name:zh-Hans": "\u6bd4\u9c81\u5170", "name:zh-Hant": "\u6bd4\u9b6f\u862d", "place": "town", "source": "wikipedia", "wikidata": "Q816235", "wikipedia": "en:Beluran"}}, {"type": "node", "id": 5235010545, "lat": 5.8967747, "lon": 117.6190252, "tags": {"name": "Kampung Kolapis", "name:en": "Kolapis Village", "name:ms": "Kampung Kolapis", "place": "village"}}, {"type": "node", "id": 9933874328, "lat": 5.8808116, "lon": 117.5604771, "tags": {"name": "Kampung Iran", "name:en": "Iran Village", "name:ms": "Kampung Iran", "place": "village"}}, {"type": "node", "id": 12479934578, "lat": 5.7228561, "lon": 117.7848788, "tags": {"name": "Ladang Segaliud", "place": "village"}}, {"type": "node", "id": 12479936768, "lat": 5.7077547, "lon": 117.7342929, "tags": {"name": "Ladang Menggaris", "place": "village"}}]}